{
  "type": "FeatureCollection",
  "features": [
    {
      "type": "Feature",
      "properties": {
        "norad_id": 67033,
        "name": "STARLINK-36137",
        "group": "last-30-days",
        "lat": 5.0184339892312515,
        "lon": -46.72568718248669,
        "alt_km": 302.09715290778695,
        "timestamp": "2025-12-19T20:42:58.816027+00:00",
        "meta_object_name": "STARLINK-36137",
        "meta_object_id": "2025-294D",
        "meta_epoch": "2025-12-19T06:00:02.000160",
        "meta_mean_motion": 15.91280504,
        "meta_eccentricity": 0.00019457,
        "meta_inclination": 42.9996,
        "meta_ra_of_asc_node": 142.4884,
        "meta_arg_of_pericenter": 255.3206,
        "meta_mean_anomaly": 2.0913,
        "meta_ephemeris_type": 0,
        "meta_classification_type": "U",
        "meta_norad_cat_id": 67033,
        "meta_element_set_no": 999,
        "meta_rev_at_epoch": 130,
        "meta_bstar": -0.0039728988,
        "meta_mean_motion_dot": -0.01314463,
        "meta_mean_motion_ddot": 0.00049472312,
        "tle_line1": "1 67033U 25294D   25353.25002315 -.01314463  49472-3 -39729-2 0  9992",
        "tle_line2": "2 67033  42.9996 142.4884 0001945 255.3206   2.0913 15.91280504  1307"
      },
      "geometry": {
        "type": "Point",
        "coordinates": [
          -46.72568718248669,
          5.0184339892312515
        ]
      }
    },
    {
      "type": "Feature",
      "properties": {
        "norad_id": 67034,
        "name": "STARLINK-36140",
        "group": "last-30-days",
        "lat": 2.2503817864979725,
        "lon": -43.74549628137376,
        "alt_km": 302.04399788338014,
        "timestamp": "2025-12-19T20:42:58.816037+00:00",
        "meta_object_name": "STARLINK-36140",
        "meta_object_id": "2025-294E",
        "meta_epoch": "2025-12-19T06:00:02.000160",
        "meta_mean_motion": 15.9141569,
        "meta_eccentricity": 0.00016911,
        "meta_inclination": 42.9997,
        "meta_ra_of_asc_node": 142.4788,
        "meta_arg_of_pericenter": 255.2608,
        "meta_mean_anomaly": 5.9332,
        "meta_ephemeris_type": 0,
        "meta_classification_type": "U",
        "meta_norad_cat_id": 67034,
        "meta_element_set_no": 999,
        "meta_rev_at_epoch": 130,
        "meta_bstar": -0.0039810053,
        "meta_mean_motion_dot": -0.0132619,
        "meta_mean_motion_ddot": 0.00050348544,
        "tle_line1": "1 67034U 25294E   25353.25002315 -.01326190  50349-3 -39810-2 0  9999",
        "tle_line2": "2 67034  42.9997 142.4788 0001691 255.2608   5.9332 15.91415690  1308"
      },
      "geometry": {
        "type": "Point",
        "coordinates": [
          -43.74549628137376,
          2.2503817864979725
        ]
      }
    },
    {
      "type": "Feature",
      "properties": {
        "norad_id": 67035,
        "name": "STARLINK-36085",
        "group": "last-30-days",
        "lat": -0.6953391892529511,
        "lon": -40.59334578985487,
        "alt_km": 302.06390060459216,
        "timestamp": "2025-12-19T20:42:58.816047+00:00",
        "meta_object_name": "STARLINK-36085",
        "meta_object_id": "2025-294F",
        "meta_epoch": "2025-12-19T06:00:02.000160",
        "meta_mean_motion": 15.91556033,
        "meta_eccentricity": 0.00016649,
        "meta_inclination": 42.9998,
        "meta_ra_of_asc_node": 142.4684,
        "meta_arg_of_pericenter": 258.3547,
        "meta_mean_anomaly": 6.8658,
        "meta_ephemeris_type": 0,
        "meta_classification_type": "U",
        "meta_norad_cat_id": 67035,
        "meta_element_set_no": 999,
        "meta_rev_at_epoch": 130,
        "meta_bstar": -0.003989596,
        "meta_mean_motion_dot": -0.01338596,
        "meta_mean_motion_ddot": 0.00051283223,
        "tle_line1": "1 67035U 25294F   25353.25002315 -.01338596  51283-3 -39896-2 0  9995",
        "tle_line2": "2 67035  42.9998 142.4684 0001664 258.3547   6.8658 15.91556033  1309"
      },
      "geometry": {
        "type": "Point",
        "coordinates": [
          -40.59334578985487,
          -0.6953391892529511
        ]
      }
    },
    {
      "type": "Feature",
      "properties": {
        "norad_id": 67036,
        "name": "STARLINK-36125",
        "group": "last-30-days",
        "lat": 0.7838728192263157,
        "lon": -42.17527425309408,
        "alt_km": 301.94665571542464,
        "timestamp": "2025-12-19T20:42:58.816062+00:00",
        "meta_object_name": "STARLINK-36125",
        "meta_object_id": "2025-294G",
        "meta_epoch": "2025-12-19T06:00:02.000160",
        "meta_mean_motion": 15.91483825,
        "meta_eccentricity": 0.00019301,
        "meta_inclination": 42.9997,
        "meta_ra_of_asc_node": 142.4737,
        "meta_arg_of_pericenter": 254.2978,
        "meta_mean_anomaly": 8.9023,
        "meta_ephemeris_type": 0,
        "meta_classification_type": "U",
        "meta_norad_cat_id": 67036,
        "meta_element_set_no": 999,
        "meta_rev_at_epoch": 135,
        "meta_bstar": -0.0039729952,
        "meta_mean_motion_dot": -0.01328227,
        "meta_mean_motion_ddot": 0.0005052319,
        "tle_line1": "1 67036U 25294G   25353.25002315 -.01328227  50523-3 -39730-2 0  9999",
        "tle_line2": "2 67036  42.9997 142.4737 0001930 254.2978   8.9023 15.91483825  1359"
      },
      "geometry": {
        "type": "Point",
        "coordinates": [
          -42.17527425309408,
          0.7838728192263157
        ]
      }
    },
    {
      "type": "Feature",
      "properties": {
        "norad_id": 67037,
        "name": "STARLINK-35732",
        "group": "last-30-days",
        "lat": -2.2885648778860435,
        "lon": -38.887231272598434,
        "alt_km": 301.9222773376641,
        "timestamp": "2025-12-19T20:42:58.816073+00:00",
        "meta_object_name": "STARLINK-35732",
        "meta_object_id": "2025-294H",
        "meta_epoch": "2025-12-19T06:00:02.000160",
        "meta_mean_motion": 15.91634834,
        "meta_eccentricity": 0.00016975,
        "meta_inclination": 42.9997,
        "meta_ra_of_asc_node": 142.4631,
        "meta_arg_of_pericenter": 254.546,
        "meta_mean_anomaly": 12.8553,
        "meta_ephemeris_type": 0,
        "meta_classification_type": "U",
        "meta_norad_cat_id": 67037,
        "meta_element_set_no": 999,
        "meta_rev_at_epoch": 130,
        "meta_bstar": -0.0040137511,
        "meta_mean_motion_dot": -0.01352067,
        "meta_mean_motion_ddot": 0.00052271892,
        "tle_line1": "1 67037U 25294H   25353.25002315 -.01352067  52272-3 -40138-2 0  9996",
        "tle_line2": "2 67037  42.9997 142.4631 0001697 254.5460  12.8553 15.91634834  1307"
      },
      "geometry": {
        "type": "Point",
        "coordinates": [
          -38.887231272598434,
          -2.2885648778860435
        ]
      }
    },
    {
      "type": "Feature",
      "properties": {
        "norad_id": 67038,
        "name": "STARLINK-35775",
        "group": "last-30-days",
        "lat": -3.6123634552102266,
        "lon": -37.46553839309545,
        "alt_km": 301.9921002675992,
        "timestamp": "2025-12-19T20:42:58.816083+00:00",
        "meta_object_name": "STARLINK-35775",
        "meta_object_id": "2025-294J",
        "meta_epoch": "2025-12-19T06:00:02.000160",
        "meta_mean_motion": 15.91702028,
        "meta_eccentricity": 0.00017374,
        "meta_inclination": 42.9998,
        "meta_ra_of_asc_node": 142.4584,
        "meta_arg_of_pericenter": 258.1597,
        "meta_mean_anomaly": 11.0571,
        "meta_ephemeris_type": 0,
        "meta_classification_type": "U",
        "meta_norad_cat_id": 67038,
        "meta_element_set_no": 999,
        "meta_rev_at_epoch": 130,
        "meta_bstar": -0.0040425918,
        "meta_mean_motion_dot": -0.01366382,
        "meta_mean_motion_ddot": 0.00053324421,
        "tle_line1": "1 67038U 25294J   25353.25002315 -.01366382  53324-3 -40426-2 0  9991",
        "tle_line2": "2 67038  42.9998 142.4584 0001737 258.1597  11.0571 15.91702028  1304"
      },
      "geometry": {
        "type": "Point",
        "coordinates": [
          -37.46553839309545,
          -3.6123634552102266
        ]
      }
    },
    {
      "type": "Feature",
      "properties": {
        "norad_id": 67039,
        "name": "STARLINK-35705",
        "group": "last-30-days",
        "lat": -6.359957814420009,
        "lon": -34.49057102440262,
        "alt_km": 302.00526299057856,
        "timestamp": "2025-12-19T20:42:58.816093+00:00",
        "meta_object_name": "STARLINK-35705",
        "meta_object_id": "2025-294K",
        "meta_epoch": "2025-12-19T06:00:02.000160",
        "meta_mean_motion": 15.9185133,
        "meta_eccentricity": 0.00017567,
        "meta_inclination": 42.9998,
        "meta_ra_of_asc_node": 142.4489,
        "meta_arg_of_pericenter": 260.0529,
        "meta_mean_anomaly": 12.944,
        "meta_ephemeris_type": 0,
        "meta_classification_type": "U",
        "meta_norad_cat_id": 67039,
        "meta_element_set_no": 999,
        "meta_rev_at_epoch": 130,
        "meta_bstar": -0.0041518385,
        "meta_mean_motion_dot": -0.0141368,
        "meta_mean_motion_ddot": 0.00056837035,
        "tle_line1": "1 67039U 25294K   25353.25002315 -.01413680  56837-3 -41518-2 0  9991",
        "tle_line2": "2 67039  42.9998 142.4489 0001756 260.0529  12.9440 15.91851330  1303"
      },
      "geometry": {
        "type": "Point",
        "coordinates": [
          -34.49057102440262,
          -6.359957814420009
        ]
      }
    }
  ]
}